OPS 6582 (TRANSIT 5B-5) 
1 00965U 64083D   21096.68574726  .00000027  00000-0  23649-4 0  9991
2 00965  90.0260 194.2490 0042637  67.2357  56.6937 13.56753689786404
OSCAR 7 (AO-7)          
1 07530U 74089B   21096.90074823 -.00000028  00000-0  10990-3 0  9997
2 07530 101.8476  71.4981 0012295 158.0324 227.7533 12.53648187122768
UOSAT 2 (UO-11)         
1 14781U 84021B   21096.81950810  .00000103  00000-0  18621-4 0  9992
2 14781  97.5932 100.1892 0007475 326.1311  33.9426 14.83267424975312
NOAA 9                  
1 15427U 84123A   21096.69667317  .00000007  00000-0  26828-4 0  9997
2 15427  98.9861  58.7845 0014348 328.1455 205.7463 14.16127645874796
LUSAT (LO-19)           
1 20442U 90005G   21096.63809255  .00000002  00000-0  17256-4 0  9999
2 20442  98.7337  51.4805 0012120  17.6516 342.5086 14.32981644630544
ITAMSAT (IO-26)         
1 22826U 93061D   21096.58274211  .00000007  00000-0  20803-4 0  9991
2 22826  98.9169 112.3328 0008153 226.7052 133.3450 14.30448835435950
RADIO ROSTO (RS-15)     
1 23439U 94085A   21096.86402908 -.00000037  00000-0  15882-3 0  9990
2 23439  64.8134 131.7423 0158900 347.9944  11.7212 11.27570689 82261
JAS-2 (FO-29)           
1 24278U 96046B   21097.09363809 -.00000024  00000-0  13661-4 0  9993
2 24278  98.5721 174.5057 0349876 334.6883  23.7465 13.53102268216847
NOAA 15                 
1 25338U 98030A   21097.07926162  .00000030  00000-0  31034-4 0  9991
2 25338  98.6899 126.2168 0011400 125.7525 234.4716 14.26020757191070
TECHSAT 1B (GO-32)      
1 25397U 98043D   21096.65122123 -.00000007  00000-0  16521-4 0  9997
2 25397  98.7643  42.4262 0000526 350.1339   9.9829 14.23704968181272
ISS (ZARYA)             
1 25544U 98067A   21097.40647234  .00001690  00000-0  39002-4 0  9993
2 25544  51.6464 332.8116 0002933 191.9452 346.3978 15.48867738277621
ORSTED                  
1 25635U 99008B   21096.44857143  .00000075  00000-0  24893-4 0  9993
2 25635  96.4680  57.8403 0139774 134.9942 226.2685 14.48276385167021
PHASE 3D (AO-40)        
1 26609U 00072B   21092.48925916 -.00000348  00000-0  00000-0 0  9996
2 26609   9.1894 335.0731 7945858 240.5665  20.0977  1.25586351 93634
PCSAT (NO-44)           
1 26931U 01043C   21096.65912984 -.00000007  00000-0  29004-4 0  9998
2 26931  67.0494 105.7227 0007349 265.3921  94.6341 14.30612720 18965
SAUDISAT 1C (SO-50)     
1 27607U 02058C   21096.87524212 -.00000008  00000-0  19188-4 0  9996
2 27607  64.5558 197.2212 0033107  48.8921 311.5031 14.75731202983991
CUTE-1 (CO-55)          
1 27844U 03031E   21096.58055911  .00000065  00000-0  49063-4 0  9991
2 27844  98.6827 105.8769 0008715 289.2716  70.7518 14.22299080921769
CUBESAT XI-IV (CO-57)   
1 27848U 03031J   21096.83387501  .00000051  00000-0  43086-4 0  9990
2 27848  98.6885 106.6936 0008706 303.1735  56.8607 14.21877289921664
MOZHAYETS 4 (RS-22)     
1 27939U 03042A   21097.24090958  .00000206  00000-0  45451-4 0  9996
2 27939  98.1281 234.8802 0014041 141.2269 218.9948 14.66965347937082
INMARSAT 4-F1           
1 28628U 05009A   21096.81019813 -.00000280  00000-0  00000-0 0  9990
2 28628   3.3280  30.2914 0002950   2.5522 237.6233  1.00272184 58649
NOAA 18                 
1 28654U 05018A   21096.83644594  .00000076  00000-0  65585-4 0  9996
2 28654  99.0008 161.3952 0015264 122.9004 237.3638 14.12595380818339
CUBESAT XI-V            
1 28895U 05043F   21096.65712251  .00000162  00000-0  39979-4 0  9991
2 28895  98.0462 231.5121 0018079  78.3035 282.0195 14.63888933823507
METOP-A                 
1 29499U 06044A   21097.10119116  .00000006  00000-0  21730-4 0  9999
2 29499  98.4813 139.1888 0001686 109.5318 335.8161 14.21503247750608
CARTOSAT-2 (IRS-P7)     
1 29710U 07001B   21096.77860703  .00003542  00000-0  10988-3 0  9996
2 29710  97.8771 175.8799 0173511 135.0646 226.4784 15.20672058769752
FALCONSAT-3             
1 30776U 07006E   21096.75010552  .00003679  00000-0  90821-4 0  9998
2 30776  35.4334 200.8307 0002768 316.4419  43.6090 15.40103608782049
CAPE-1                  
1 31130U 07012P   21096.61501978  .00000135  00000-0  39191-4 0  9999
2 31130  98.2283  36.6106 0095110 206.3605 153.2738 14.56657179741497
CARTOSAT-2A             
1 32783U 08021A   21097.22177359  .00000212  00000-0  35893-4 0  9996
2 32783  97.8800 157.9575 0013953 134.4235 225.8128 14.78699190698554
CUTE-1.7+APD II (CO-65) 
1 32785U 08021C   21097.01814646  .00000287  00000-0  36347-4 0  9999
2 32785  97.6058  78.6591 0011596 236.5658 123.4451 14.88675664701615
COMPASS-1               
1 32787U 08021E   21096.80173661  .00000790  00000-0  79061-4 0  9991
2 32787  97.5270  90.6959 0012682 162.0201 198.1471 14.94034733702882
AAUSAT-II               
1 32788U 08021F   21096.56408808  .00000250  00000-0  27537-4 0  9991
2 32788  97.5039  94.2477 0012477 144.5502 215.6551 14.95478836703110
DELFI-C3 (DO-64)        
1 32789U 08021G   21097.05797304  .00001707  00000-0  11252-3 0  9993
2 32789  97.3842 135.1591 0012596  35.8853 324.3219 15.08711077706165
SEEDS II (CO-66)        
1 32791U 08021J   21096.50489296  .00000552  00000-0  60696-4 0  9997
2 32791  97.5672  84.1459 0012530 199.6978 160.3759 14.91337196702050
YUBILEINY (RS-30)       
1 32953U 08025A   21097.00029743  .00000028  00000-0  12906-3 0  9992
2 32953  82.4994  95.3702 0020288 130.2617 230.0240 12.43101164584108
FENGYUN 3A              
1 32958U 08026A   21096.54620775  .00000020  00000-0  29298-4 0  9993
2 32958  98.4438  73.6193 0008196 200.6335 159.4512 14.18651930666279
PRISM (HITOMI)          
1 33493U 09002B   21096.77077875  .00001323  00000-0  11872-3 0  9990
2 33493  98.1821  55.8960 0015460 157.2178 202.9732 14.97544030663594
STARS (KUKAI)           
1 33498U 09002G   21096.97128258  .00000213  00000-0  36044-4 0  9995
2 33498  98.2245 335.4641 0010047 210.4023 149.6606 14.79312819657318
KKS-1 (KISEKI)          
1 33499U 09002H   21096.66354608  .00000102  00000-0  22912-4 0  9998
2 33499  98.2799 324.9947 0007766 270.9685  89.0633 14.75637268655829
NOAA 19                 
1 33591U 09005A   21097.07615800  .00000025  00000-0  38913-4 0  9996
2 33591  99.1895 115.9934 0013440 336.4425  23.6129 14.12459038626841
SWISSCUBE               
1 35932U 09051B   21096.08619253  .00000147  00000-0  44036-4 0  9992
2 35932  98.6078 293.8109 0006701 316.7181  43.3489 14.56509722612422
BEESAT-1                
1 35933U 09051C   21097.01647721  .00000124  00000-0  38987-4 0  9991
2 35933  98.6047 296.6111 0005087 330.8523  29.2390 14.56571148612713
ITUPSAT1                
1 35935U 09051E   21096.08459836  .00000108  00000-0  35954-4 0  9990
2 35935  98.6152 295.8019 0007447 331.2190  28.8594 14.55705814612244
XIWANG-1 (HOPE-1)       
1 36122U 09072B   21096.78164607 -.00000046  00000-0 -80969-5 0  9998
2 36122 100.1265  80.4345 0006814 267.2486  92.7839 13.16359607543460
CARTOSAT-2B             
1 36795U 10035A   21097.12219215  .00000040  00000-0  12467-4 0  9999
2 36795  97.8772 157.2790 0012994 208.1240 151.9284 14.78715560579583
TISAT 1                 
1 36799U 10035E   21096.94593662  .00000472  00000-0  53067-4 0  9993
2 36799  98.2071 284.8641 0013506  88.6417 271.6348 14.91666001582870
FENGYUN 3B              
1 37214U 10059A   21097.23343286  .00000001  00000-0  23765-4 0  9990
2 37214  99.0773  89.9656 0017407 152.3297 207.8817 14.15981514539251
JUGNU                   
1 37839U 11058B   21096.91928654  .00000317  00000-0  27170-4 0  9999
2 37839  19.9616 303.0345 0018909  23.7872 102.7071 14.12709229490444
SRMSAT                  
1 37841U 11058D   21097.13868664  .00000303  00000-0  21128-4 0  9993
2 37841  19.9735  12.1041 0011836 229.6028 272.4995 14.10689856489777
M-CUBED & EXP-1 PRIME   
1 37855U 11061F   21096.94288339  .00001496  00000-0  79645-4 0  9996
2 37855 101.7188 343.2758 0167492 283.4202  74.8390 15.07418905515875
HORYU-2                 
1 38340U 12025D   21097.10114770  .00000199  00000-0  36731-4 0  9991
2 38340  98.2391 163.1098 0011661 176.9703 183.1579 14.76006500478279
METOP-B                 
1 38771U 12049A   21097.14190340  .00000000  00000-0  20096-4 0  9994
2 38771  98.6866 158.1651 0001124 178.1253 210.0648 14.21502346443744
SARAL                   
1 39086U 13009A   21097.12288072 -.00000003  00000-0  15170-4 0  9990
2 39086  98.5462 284.2389 0002061  99.3524 260.7892 14.32048256424031
AAUSAT 3                
1 39087U 13009B   21097.02412391  .00000104  00000-0  50516-4 0  9997
2 39087  98.4313 301.9119 0012967 124.8170 235.4243 14.35914667424941
STRAND-1                
1 39090U 13009E   21097.01520799  .00000045  00000-0  30874-4 0  9991
2 39090  98.4343 300.8798 0010083 126.7613 233.4500 14.35173416424818
BRITE-AUSTRIA           
1 39091U 13009F   21096.09415334  .00000007  00000-0  17290-4 0  9992
2 39091  98.4343 299.1091 0011310 136.0595 224.1492 14.35180678424693
UNIBRITE                
1 39092U 13009G   21096.98296685  .00000014  00000-0  19867-4 0  9997
2 39092  98.4371 299.6754 0010328 128.4194 231.7921 14.35052519424798
SOMP                    
1 39134U 13015E   21097.10738977  .00001793  00000-0  86372-4 0  9991
2 39134  64.8648  44.4294 0005160 252.1302 107.9263 15.22273333440739
BEESAT-3                
1 39135U 13015F   21096.10177018  .00001414  00000-0  76437-4 0  9995
2 39135  64.8663  75.7087 0007076 201.1628 158.9207 15.19130491439642
BEESAT-2                
1 39136U 13015G   21096.66214094  .00001320  00000-0  72812-4 0  9992
2 39136  64.8738  79.9953 0028628 250.8172 108.9856 15.18506360439595
NEE-01 PEGASO           
1 39151U 13018B   21096.97907116  .00000189  00000-0  31738-4 0  9994
2 39151  97.9737 199.8772 0016035 226.1305 133.8583 14.80315276429104
CUBEBUG-1 (CAPITAN BETO)
1 39153U 13018D   21097.02455318  .00000233  00000-0  37077-4 0  9997
2 39153  97.9875 202.9806 0015990 221.1377 138.8631 14.80890888429236
